CCSDS_OMM_VERS = 2.0
CREATION_DATE  = 
ORIGINATOR     = 

OBJECT_NAME    = DELTA 2 R/B(1)
OBJECT_ID      = 1990-008B
CENTER_NAME    = EARTH
REF_FRAME      = TEME
TIME_SYSTEM    = UTC
MEAN_ELEMENT_THEORY = SGP/SGP4

EPOCH          = 2026-01-11T13:45:25.602336
MEAN_MOTION    = 15.48291978
ECCENTRICITY   = .01027314
INCLINATION    = 35.6032
RA_OF_ASC_NODE = 187.4652
ARG_OF_PERICENTER = 90.3469
MEAN_ANOMALY   = 270.9037

EPHEMERIS_TYPE = 0
CLASSIFICATION_TYPE = U
NORAD_CAT_ID   = 20453
ELEMENT_SET_NO = 999
REV_AT_EPOCH   = 91725
BSTAR          = .78867798E-3
MEAN_MOTION_DOT = .53475E-3
MEAN_MOTION_DDOT = 0

CCSDS_OMM_VERS = 2.0
CREATION_DATE  = 
ORIGINATOR     = 

OBJECT_NAME    = COSMOS 2058
OBJECT_ID      = 1990-010A
CENTER_NAME    = EARTH
REF_FRAME      = TEME
TIME_SYSTEM    = UTC
MEAN_ELEMENT_THEORY = SGP/SGP4

EPOCH          = 2026-01-11T15:09:56.657664
MEAN_MOTION    = 15.10793634
ECCENTRICITY   = .00102207
INCLINATION    = 82.4692
RA_OF_ASC_NODE = 103.6275
ARG_OF_PERICENTER = 165.9436
MEAN_ANOMALY   = 194.2080

EPHEMERIS_TYPE = 0
CLASSIFICATION_TYPE = U
NORAD_CAT_ID   = 20465
ELEMENT_SET_NO = 999
REV_AT_EPOCH   = 93362
BSTAR          = .21652504E-3
MEAN_MOTION_DOT = .3627E-4
MEAN_MOTION_DDOT = 0

CCSDS_OMM_VERS = 2.0
CREATION_DATE  = 
ORIGINATOR     = 

OBJECT_NAME    = SL-14 R/B
OBJECT_ID      = 1990-010B
CENTER_NAME    = EARTH
REF_FRAME      = TEME
TIME_SYSTEM    = UTC
MEAN_ELEMENT_THEORY = SGP/SGP4

EPOCH          = 2026-01-11T13:24:19.498464
MEAN_MOTION    = 14.83506561
ECCENTRICITY   = .00210817
INCLINATION    = 82.5041
RA_OF_ASC_NODE = 321.0428
ARG_OF_PERICENTER = 125.4255
MEAN_ANOMALY   = 234.8932

EPHEMERIS_TYPE = 0
CLASSIFICATION_TYPE = U
NORAD_CAT_ID   = 20466
ELEMENT_SET_NO = 999
REV_AT_EPOCH   = 92001
BSTAR          = .56478353E-4
MEAN_MOTION_DOT = .49E-5
MEAN_MOTION_DDOT = 0

CCSDS_OMM_VERS = 2.0
CREATION_DATE  = 
ORIGINATOR     = 

OBJECT_NAME    = SL-14 R/B
OBJECT_ID      = 1990-018B
CENTER_NAME    = EARTH
REF_FRAME      = TEME
TIME_SYSTEM    = UTC
MEAN_ELEMENT_THEORY = SGP/SGP4

EPOCH          = 2026-01-11T04:24:34.089696
MEAN_MOTION    = 14.82083442
ECCENTRICITY   = .0014948
INCLINATION    = 82.5217
RA_OF_ASC_NODE = 276.8476
ARG_OF_PERICENTER = 282.8933
MEAN_ANOMALY   = 77.0611

EPHEMERIS_TYPE = 0
CLASSIFICATION_TYPE = U
NORAD_CAT_ID   = 20511
ELEMENT_SET_NO = 999
REV_AT_EPOCH   = 91406
BSTAR          = .56621654E-4
MEAN_MOTION_DOT = .474E-5
MEAN_MOTION_DDOT = 0

CCSDS_OMM_VERS = 2.0
CREATION_DATE  = 
ORIGINATOR     = 

OBJECT_NAME    = HST
OBJECT_ID      = 1990-037B
CENTER_NAME    = EARTH
REF_FRAME      = TEME
TIME_SYSTEM    = UTC
MEAN_ELEMENT_THEORY = SGP/SGP4

EPOCH          = 2026-01-11T12:06:37.647360
MEAN_MOTION    = 15.28501960
ECCENTRICITY   = .00020965
INCLINATION    = 28.4671
RA_OF_ASC_NODE = 69.8199
ARG_OF_PERICENTER = 185.9229
MEAN_ANOMALY   = 174.1342

EPHEMERIS_TYPE = 0
CLASSIFICATION_TYPE = U
NORAD_CAT_ID   = 20580
ELEMENT_SET_NO = 999
REV_AT_EPOCH   = 76455
BSTAR          = .28103643E-3
MEAN_MOTION_DOT = .8251E-4
MEAN_MOTION_DDOT = 0

CCSDS_OMM_VERS = 2.0
CREATION_DATE  = 
ORIGINATOR     = 

OBJECT_NAME    = SL-16 R/B
OBJECT_ID      = 1990-046B
CENTER_NAME    = EARTH
REF_FRAME      = TEME
TIME_SYSTEM    = UTC
MEAN_ELEMENT_THEORY = SGP/SGP4

EPOCH          = 2026-01-11T13:52:28.977888
MEAN_MOTION    = 14.15006251
ECCENTRICITY   = .00132087
INCLINATION    = 70.9997
RA_OF_ASC_NODE = 57.8579
ARG_OF_PERICENTER = 22.4068
MEAN_ANOMALY   = 337.7629

EPHEMERIS_TYPE = 0
CLASSIFICATION_TYPE = U
NORAD_CAT_ID   = 20625
ELEMENT_SET_NO = 999
REV_AT_EPOCH   = 84031
BSTAR          = .13434897E-3
MEAN_MOTION_DOT = .213E-5
MEAN_MOTION_DDOT = 0

CCSDS_OMM_VERS = 2.0
CREATION_DATE  = 
ORIGINATOR     = 

OBJECT_NAME    = COSMOS 2084
OBJECT_ID      = 1990-055A
CENTER_NAME    = EARTH
REF_FRAME      = TEME
TIME_SYSTEM    = UTC
MEAN_ELEMENT_THEORY = SGP/SGP4

EPOCH          = 2026-01-11T14:21:05.396832
MEAN_MOTION    = 15.05236892
ECCENTRICITY   = .00266744
INCLINATION    = 62.7888
RA_OF_ASC_NODE = 170.2393
ARG_OF_PERICENTER = 179.1479
MEAN_ANOMALY   = 180.9671

EPHEMERIS_TYPE = 0
CLASSIFICATION_TYPE = U
NORAD_CAT_ID   = 20663
ELEMENT_SET_NO = 999
REV_AT_EPOCH   = 92772
BSTAR          = .21771627E-3
MEAN_MOTION_DOT = .2944E-4
MEAN_MOTION_DDOT = 0

CCSDS_OMM_VERS = 2.0
CREATION_DATE  = 
ORIGINATOR     = 

OBJECT_NAME    = SL-6 R/B(2)
OBJECT_ID      = 1990-055D
CENTER_NAME    = EARTH
REF_FRAME      = TEME
TIME_SYSTEM    = UTC
MEAN_ELEMENT_THEORY = SGP/SGP4

EPOCH          = 2026-01-11T13:41:18.439584
MEAN_MOTION    = 15.03252902
ECCENTRICITY   = .00165247
INCLINATION    = 62.7836
RA_OF_ASC_NODE = 88.0437
ARG_OF_PERICENTER = 327.2034
MEAN_ANOMALY   = 32.8038

EPHEMERIS_TYPE = 0
CLASSIFICATION_TYPE = U
NORAD_CAT_ID   = 20666
ELEMENT_SET_NO = 999
REV_AT_EPOCH   = 92960
BSTAR          = .15980362E-3
MEAN_MOTION_DOT = .1982E-4
MEAN_MOTION_DDOT = 0

CCSDS_OMM_VERS = 2.0
CREATION_DATE  = 
ORIGINATOR     = 

OBJECT_NAME    = SL-8 R/B
OBJECT_ID      = 1990-078B
CENTER_NAME    = EARTH
REF_FRAME      = TEME
TIME_SYSTEM    = UTC
MEAN_ELEMENT_THEORY = SGP/SGP4

EPOCH          = 2026-01-11T06:47:24.981792
MEAN_MOTION    = 14.86982431
ECCENTRICITY   = .03688319
INCLINATION    = 82.9058
RA_OF_ASC_NODE = 302.8482
ARG_OF_PERICENTER = 206.4169
MEAN_ANOMALY   = 151.7835

EPHEMERIS_TYPE = 0
CLASSIFICATION_TYPE = U
NORAD_CAT_ID   = 20775
ELEMENT_SET_NO = 999
REV_AT_EPOCH   = 80076
BSTAR          = .57496972E-3
MEAN_MOTION_DOT = .18896E-3
MEAN_MOTION_DDOT = 0

CCSDS_OMM_VERS = 2.0
CREATION_DATE  = 
ORIGINATOR     = 

OBJECT_NAME    = SL-8 R/B
OBJECT_ID      = 1991-006B
CENTER_NAME    = EARTH
REF_FRAME      = TEME
TIME_SYSTEM    = UTC
MEAN_ELEMENT_THEORY = SGP/SGP4

EPOCH          = 2026-01-11T14:30:13.540032
MEAN_MOTION    = 13.77492497
ECCENTRICITY   = .00221382
INCLINATION    = 82.9408
RA_OF_ASC_NODE = 212.4975
ARG_OF_PERICENTER = 192.2746
MEAN_ANOMALY   = 227.9244

EPHEMERIS_TYPE = 0
CLASSIFICATION_TYPE = U
NORAD_CAT_ID   = 21088
ELEMENT_SET_NO = 999
REV_AT_EPOCH   = 75621
BSTAR          = -.296792E-4
MEAN_MOTION_DOT = -.14E-6
MEAN_MOTION_DDOT = 0

CCSDS_OMM_VERS = 2.0
CREATION_DATE  = 
ORIGINATOR     = 

OBJECT_NAME    = OKEAN-3
OBJECT_ID      = 1991-039A
CENTER_NAME    = EARTH
REF_FRAME      = TEME
TIME_SYSTEM    = UTC
MEAN_ELEMENT_THEORY = SGP/SGP4

EPOCH          = 2026-01-11T13:12:26.000352
MEAN_MOTION    = 15.04336337
ECCENTRICITY   = .00151931
INCLINATION    = 82.5163
RA_OF_ASC_NODE = 32.1847
ARG_OF_PERICENTER = 159.4392
MEAN_ANOMALY   = 200.7449

EPHEMERIS_TYPE = 0
CLASSIFICATION_TYPE = U
NORAD_CAT_ID   = 21397
ELEMENT_SET_NO = 999
REV_AT_EPOCH   = 85644
BSTAR          = .18494054E-3
MEAN_MOTION_DOT = .2611E-4
MEAN_MOTION_DDOT = 0

CCSDS_OMM_VERS = 2.0
CREATION_DATE  = 
ORIGINATOR     = 

OBJECT_NAME    = COSMOS 2151
OBJECT_ID      = 1991-042A
CENTER_NAME    = EARTH
REF_FRAME      = TEME
TIME_SYSTEM    = UTC
MEAN_ELEMENT_THEORY = SGP/SGP4

EPOCH          = 2026-01-11T13:55:26.206752
MEAN_MOTION    = 14.99838686
ECCENTRICITY   = .00113025
INCLINATION    = 82.4979
RA_OF_ASC_NODE = 138.7457
ARG_OF_PERICENTER = 250.0021
MEAN_ANOMALY   = 109.9986

EPHEMERIS_TYPE = 0
CLASSIFICATION_TYPE = U
NORAD_CAT_ID   = 21422
ELEMENT_SET_NO = 999
REV_AT_EPOCH   = 85463
BSTAR          = .15344933E-3
MEAN_MOTION_DOT = .1928E-4
MEAN_MOTION_DDOT = 0

