DELTA 2 R/B(1)          
1 20453U 90008B   26011.57321299  .00053475  00000+0  78868-3 0  9992
2 20453  35.6032 187.4652 0102731  90.3469 270.9037 15.48291978917259
COSMOS 2058             
1 20465U 90010A   26011.63190576  .00003627  00000+0  21653-3 0  9991
2 20465  82.4692 103.6275 0010220 165.9436 194.2080 15.10793634933629
SL-14 R/B               
1 20466U 90010B   26011.55855901  .00000490  00000+0  56478-4 0  9992
2 20466  82.5041 321.0428 0021081 125.4255 234.8932 14.83506561920018
SL-14 R/B               
1 20511U 90018B   26011.18372789  .00000474  00000+0  56622-4 0  9991
2 20511  82.5217 276.8476 0014948 282.8933  77.0611 14.82083442914065
HST                     
1 20580U 90037B   26011.50460240  .00008251  00000+0  28104-3 0  9998
2 20580  28.4671  69.8199 0002096 185.9229 174.1342 15.28501960764556
SL-16 R/B               
1 20625U 90046B   26011.57811317  .00000213  00000+0  13435-3 0  9991
2 20625  70.9997  57.8579 0013208  22.4068 337.7629 14.15006251840313
COSMOS 2084             
1 20663U 90055A   26011.59797913  .00002944  00000+0  21772-3 0  9996
2 20663  62.7888 170.2393 0026674 179.1479 180.9671 15.05236892927726
SL-6 R/B(2)             
1 20666U 90055D   26011.57035231  .00001982  00000+0  15980-3 0  9990
2 20666  62.7836  88.0437 0016524 327.2034  32.8038 15.03252902929602
SL-8 R/B                
1 20775U 90078B   26011.28292803  .00018896  00000+0  57497-3 0  9995
2 20775  82.9058 302.8482 0368831 206.4169 151.7835 14.86982431800766
SL-8 R/B                
1 21088U 91006B   26011.60432338 -.00000014  00000+0 -29679-4 0  9997
2 21088  82.9408 212.4975 0022138 192.2746 227.9244 13.77492497756213
OKEAN-3                 
1 21397U 91039A   26011.55030093  .00002611  00000+0  18494-3 0  9997
2 21397  82.5163  32.1847 0015193 159.4392 200.7449 15.04336337856444
COSMOS 2151             
1 21422U 91042A   26011.58016443  .00001928  00000+0  15345-3 0  9998
2 21422  82.4979 138.7457 0011302 250.0021 109.9986 14.99838686854634
